COSMOS 1408 DEB         
1 52815U 82092CAC 22299.27182291  .00016479  00000+0  31913-3 0  9994
2 52815  82.6183 135.7602 0035040  16.7173 343.5223 15.46876026 32172
COSMOS 1408 DEB         
1 52816U 82092CAD 22299.97602531  .00079961  00000+0  12908-2 0  9993
2 52816  82.5929 137.0609 0019794 322.5765  37.4107 15.52363548 25804
COSMOS 1408 DEB         
1 52821U 82092CAG 22296.55536079  .00545869  00000+0  28734-2 0  9992
2 52821  82.5008 133.8040 0007195 252.2790 107.7691 15.79231283 24706
COSMOS 1408 DEB         
1 52823U 82092CAJ 22296.30591369  .00046868  00000+0  12071-2 0  9992
2 52823  82.5035 138.9172 0027804 278.6450  81.1645 15.38614694 28641
COSMOS 1408 DEB         
1 52825U 82092CAL 22299.35017025  .00009247  00000+0  46093-3 0  9996
2 52825  82.8323 161.8170 0112253 343.8600  15.9064 15.11936245 25281
COSMOS 1408 DEB         
1 52919U 82092CAQ 22270.55017713  .00088941  00000+0  42990-2 0  9994
2 52919  82.9441 199.0313 0146629  94.5905 267.2090 15.09216539 23240
COSMOS 1408 DEB         
1 52921U 82092CAS 22272.98710421  .00014471  00000+0  59182-3 0  9991
2 52921  82.5230 168.5839 0092847 358.5793   1.5163 15.20249675 24925
COSMOS 1408 DEB         
1 52924U 82092CAV 22295.87475985  .00047553  00000+0  22240-2 0  9991
2 52924  82.5506 157.8491 0151158 332.6230  26.7088 15.09903185 24014
COSMOS 1408 DEB         
1 52925U 82092CAW 22299.30345150  .00130201  00000+0  23955-2 0  9991
2 52925  82.5421 143.7996 0058755 272.2664  87.1859 15.46798877 24944
COSMOS 1408 DEB         
1 52928U 82092CAZ 22298.33294450  .00072591  00000+0  25842-2 0  9996
2 52928  82.5459 152.9290 0110331 317.8478  41.4310 15.22994660 27484
COSMOS 1408 DEB         
1 52929U 82092CBA 22299.82488815  .00053557  00000+0  94235-3 0  9996
2 52929  82.5696 135.0996 0018401 331.7144  28.3106 15.50055803 22708
COSMOS 1408 DEB         
1 53094U 82092CBE 22294.07437048  .00041699  00000+0  13926-2 0  9995
2 53094  82.9201 166.4044 0059162 324.5618  35.1697 15.29132594 24112
COSMOS 1408 DEB         
1 53095U 82092CBF 22299.27820851  .00025661  00000+0  70275-3 0  9993
2 53095  82.5387 138.7209 0033745 274.4613  85.2776 15.36593604 24975
COSMOS 1408 DEB         
1 53097U 82092CBH 22297.54057160  .00099925  00000+0  14854-2 0  9992
2 53097  82.5348 135.7745 0010366 258.5370 101.4719 15.54744910 16790
COSMOS 1408 DEB         
1 53098U 82092CBJ 22275.07952355  .00191626  00000+0  64921-2 0  9998
2 53098  81.7035 144.0574 0150138 132.0577 229.3546 15.19732107 20222
COSMOS 1408 DEB         
1 53099U 82092CBK 22287.35171600  .00213621  00000+0  26220-2 0  9999
2 53099  82.5627 145.9777 0014446  21.3447 338.8409 15.59481157 42353
COSMOS 1408 DEB         
1 53953U 82092CBN 22299.28260785  .00034849  00000+0  79898-3 0  9999
2 53953  82.5589 138.0766 0023640 268.6642  91.1897 15.42282651  8531
